SL-14 R/B               
1 16496U 86006B   26111.65863580  .00000548  00000+0  55089-4 0  9995
2 16496  82.5290 219.2971 0077682 129.5934 231.2177 14.86885545155590
COSMOS 1743             
1 16719U 86034A   26111.47923790  .00041734  00000+0  47132-3 0  9995
2 16719  82.5321  28.7972 0007452 112.9474 247.2571 15.62264576186926
SL-14 R/B               
1 16792U 86046B   26111.50981569  .00000323  00000+0  34210-4 0  9994
2 16792  82.4841  39.7214 0024681  86.6590 273.7449 14.85630651132769
SL-14 R/B               
1 16882U 86055B   26111.90228647  .00000321  00000+0  34076-4 0  9997
2 16882  82.5181  86.0424 0018680 184.3507 206.4943 14.85679479125788
AJISAI (EGS)            
1 16908U 86061A   26111.84510692 -.00000090  00000+0  55567-4 0  9992
2 16908  50.0105 320.6479 0011412  37.7871  53.0117 12.44515877473375
SL-14 R/B               
1 17567U 87024B   26111.86429220  .00000349  00000+0  36855-4 0  9997
2 17567  82.5294  52.1791 0019667 115.5642 244.7611 14.86171982 94540
COSMOS 1833             
1 17589U 87027A   26111.82986201 -.00000239  00000+0 -10195-3 0  9995
2 17589  70.9163 235.3362 0022450 148.0344 212.2144 14.13035327 16416
SL-16 R/B               
1 17590U 87027B   26111.67817516  .00000153  00000+0  99603-4 0  9997
2 17590  71.0030 185.9069 0003418  35.0420 325.0928 14.17169101 21433
SL-14 R/B               
1 17912U 87038B   26111.81400166  .00000326  00000+0  34976-4 0  9996
2 17912  82.4997 256.1694 0019831  26.3213 333.9006 14.85407065 85639
COSMOS 1844             
1 17973U 87041A   26111.81877541 -.00000299  00000+0 -12951-3 0  9991
2 17973  70.8986 303.2066 0032708 314.5833  45.2620 14.14562422  9687
SL-14 R/B               
1 18153U 87055B   26111.78331370  .00000260  00000+0  27142-4 0  9993
2 18153  82.4970 308.4115 0019469 228.3931 131.5618 14.85665959 76331
COSMOS 1867             
1 18187U 87060A   26111.40602389 -.00000037  00000+0  23844-4 0  9994
2 18187  65.0106 187.0762 0015303 280.8253  79.1109 14.31509231 26055
SL-14 R/B               
1 18749U 88001B   26111.84898486  .00000264  00000+0  27641-4 0  9997
2 18749  82.5130 154.7770 0019654  95.4877 264.8581 14.85567903 48437
COSMOS 1933             
1 18958U 88020A   26111.76332450  .00002736  00000+0  13167-3 0  9998
2 18958  82.5153 208.2881 0005181  63.6771 296.4995 15.18362739 56764
SL-3 R/B                
1 19046U 88032B   26111.84801095  .00003989  00000+0  18477-3 0  9995
2 19046  97.5240  94.9776 0027684  84.0974 276.3415 15.20351484 58666
SL-16 R/B               
1 19120U 88039B   26111.82150855 -.00000014  00000+0  16023-4 0  9997
2 19120  71.0155 337.3475 0024077 273.3365  86.5006 14.19622650964500
COSMOS 1953             
1 19210U 88050A   26111.75724516  .00006944  00000+0  24395-3 0  9990
2 19210  82.5051 114.9001 0009899 342.4269  17.6627 15.29159258 44360
