[{"OBJECT_NAME":"SL-14 R/B","OBJECT_ID":"1986-006B","EPOCH":"2026-04-21T15:48:26.133120","MEAN_MOTION":14.86885545,"ECCENTRICITY":0.0077682,"INCLINATION":82.529,"RA_OF_ASC_NODE":219.2971,"ARG_OF_PERICENTER":129.5934,"MEAN_ANOMALY":231.2177,"EPHEMERIS_TYPE":0,"CLASSIFICATION_TYPE":"U","NORAD_CAT_ID":16496,"ELEMENT_SET_NO":999,"REV_AT_EPOCH":15559,"BSTAR":5.5089e-5,"MEAN_MOTION_DOT":5.48e-6,"MEAN_MOTION_DDOT":0},{"OBJECT_NAME":"COSMOS 1743","OBJECT_ID":"1986-034A","EPOCH":"2026-04-21T11:30:06.154560","MEAN_MOTION":15.62264576,"ECCENTRICITY":0.00074523,"INCLINATION":82.5321,"RA_OF_ASC_NODE":28.7972,"ARG_OF_PERICENTER":112.9474,"MEAN_ANOMALY":247.2571,"EPHEMERIS_TYPE":0,"CLASSIFICATION_TYPE":"U","NORAD_CAT_ID":16719,"ELEMENT_SET_NO":999,"REV_AT_EPOCH":18692,"BSTAR":0.00047131531,"MEAN_MOTION_DOT":0.00041734,"MEAN_MOTION_DDOT":0},{"OBJECT_NAME":"SL-14 R/B","OBJECT_ID":"1986-046B","EPOCH":"2026-04-21T12:14:08.075616","MEAN_MOTION":14.85630651,"ECCENTRICITY":0.00246813,"INCLINATION":82.4841,"RA_OF_ASC_NODE":39.7214,"ARG_OF_PERICENTER":86.659,"MEAN_ANOMALY":273.7449,"EPHEMERIS_TYPE":0,"CLASSIFICATION_TYPE":"U","NORAD_CAT_ID":16792,"ELEMENT_SET_NO":999,"REV_AT_EPOCH":13276,"BSTAR":3.4210286e-5,"MEAN_MOTION_DOT":3.23e-6,"MEAN_MOTION_DDOT":0},{"OBJECT_NAME":"SL-14 R/B","OBJECT_ID":"1986-055B","EPOCH":"2026-04-21T21:39:17.551008","MEAN_MOTION":14.85679479,"ECCENTRICITY":0.001868,"INCLINATION":82.5181,"RA_OF_ASC_NODE":86.0424,"ARG_OF_PERICENTER":184.3507,"MEAN_ANOMALY":206.4943,"EPHEMERIS_TYPE":0,"CLASSIFICATION_TYPE":"U","NORAD_CAT_ID":16882,"ELEMENT_SET_NO":999,"REV_AT_EPOCH":12578,"BSTAR":3.4076e-5,"MEAN_MOTION_DOT":3.21e-6,"MEAN_MOTION_DDOT":0},{"OBJECT_NAME":"AJISAI (EGS)","OBJECT_ID":"1986-061A","EPOCH":"2026-04-21T20:16:57.237888","MEAN_MOTION":12.44515877,"ECCENTRICITY":0.0011412,"INCLINATION":50.0105,"RA_OF_ASC_NODE":320.6479,"ARG_OF_PERICENTER":37.7871,"MEAN_ANOMALY":53.0117,"EPHEMERIS_TYPE":0,"CLASSIFICATION_TYPE":"U","NORAD_CAT_ID":16908,"ELEMENT_SET_NO":999,"REV_AT_EPOCH":47337,"BSTAR":5.5567e-5,"MEAN_MOTION_DOT":-9.0e-7,"MEAN_MOTION_DDOT":0},{"OBJECT_NAME":"SL-14 R/B","OBJECT_ID":"1987-024B","EPOCH":"2026-04-21T20:44:34.846080","MEAN_MOTION":14.86171982,"ECCENTRICITY":0.0019667,"INCLINATION":82.5294,"RA_OF_ASC_NODE":52.1791,"ARG_OF_PERICENTER":115.5642,"MEAN_ANOMALY":244.7611,"EPHEMERIS_TYPE":0,"CLASSIFICATION_TYPE":"U","NORAD_CAT_ID":17567,"ELEMENT_SET_NO":999,"REV_AT_EPOCH":9454,"BSTAR":3.6855e-5,"MEAN_MOTION_DOT":3.49e-6,"MEAN_MOTION_DDOT":0},{"OBJECT_NAME":"COSMOS 1833","OBJECT_ID":"1987-027A","EPOCH":"2026-04-21T19:55:00.077664","MEAN_MOTION":14.13035327,"ECCENTRICITY":0.002245,"INCLINATION":70.9163,"RA_OF_ASC_NODE":235.3362,"ARG_OF_PERICENTER":148.0344,"MEAN_ANOMALY":212.2144,"EPHEMERIS_TYPE":0,"CLASSIFICATION_TYPE":"U","NORAD_CAT_ID":17589,"ELEMENT_SET_NO":999,"REV_AT_EPOCH":1641,"BSTAR":-0.00010195,"MEAN_MOTION_DOT":-2.39e-6,"MEAN_MOTION_DDOT":0},{"OBJECT_NAME":"SL-16 R/B","OBJECT_ID":"1987-027B","EPOCH":"2026-04-21T16:16:34.333824","MEAN_MOTION":14.17169101,"ECCENTRICITY":0.0003418,"INCLINATION":71.003,"RA_OF_ASC_NODE":185.9069,"ARG_OF_PERICENTER":35.042,"MEAN_ANOMALY":325.0928,"EPHEMERIS_TYPE":0,"CLASSIFICATION_TYPE":"U","NORAD_CAT_ID":17590,"ELEMENT_SET_NO":999,"REV_AT_EPOCH":2143,"BSTAR":9.9603e-5,"MEAN_MOTION_DOT":1.53e-6,"MEAN_MOTION_DDOT":0},{"OBJECT_NAME":"SL-14 R/B","OBJECT_ID":"1987-038B","EPOCH":"2026-04-21T19:32:09.743424","MEAN_MOTION":14.85407065,"ECCENTRICITY":0.0019831,"INCLINATION":82.4997,"RA_OF_ASC_NODE":256.1694,"ARG_OF_PERICENTER":26.3213,"MEAN_ANOMALY":333.9006,"EPHEMERIS_TYPE":0,"CLASSIFICATION_TYPE":"U","NORAD_CAT_ID":17912,"ELEMENT_SET_NO":999,"REV_AT_EPOCH":8563,"BSTAR":3.4976e-5,"MEAN_MOTION_DOT":3.26e-6,"MEAN_MOTION_DDOT":0},{"OBJECT_NAME":"COSMOS 1844","OBJECT_ID":"1987-041A","EPOCH":"2026-04-21T19:39:02.195424","MEAN_MOTION":14.14562422,"ECCENTRICITY":0.0032708,"INCLINATION":70.8986,"RA_OF_ASC_NODE":303.2066,"ARG_OF_PERICENTER":314.5833,"MEAN_ANOMALY":45.262,"EPHEMERIS_TYPE":0,"CLASSIFICATION_TYPE":"U","NORAD_CAT_ID":17973,"ELEMENT_SET_NO":999,"REV_AT_EPOCH":968,"BSTAR":-0.00012951,"MEAN_MOTION_DOT":-2.99e-6,"MEAN_MOTION_DDOT":0},{"OBJECT_NAME":"SL-14 R/B","OBJECT_ID":"1987-055B","EPOCH":"2026-04-21T18:47:58.303680","MEAN_MOTION":14.85665959,"ECCENTRICITY":0.0019469,"INCLINATION":82.497,"RA_OF_ASC_NODE":308.4115,"ARG_OF_PERICENTER":228.3931,"MEAN_ANOMALY":131.5618,"EPHEMERIS_TYPE":0,"CLASSIFICATION_TYPE":"U","NORAD_CAT_ID":18153,"ELEMENT_SET_NO":999,"REV_AT_EPOCH":7633,"BSTAR":2.7142e-5,"MEAN_MOTION_DOT":2.6e-6,"MEAN_MOTION_DDOT":0},{"OBJECT_NAME":"COSMOS 1867","OBJECT_ID":"1987-060A","EPOCH":"2026-04-21T09:44:40.464096","MEAN_MOTION":14.31509231,"ECCENTRICITY":0.00153033,"INCLINATION":65.0106,"RA_OF_ASC_NODE":187.0762,"ARG_OF_PERICENTER":280.8253,"MEAN_ANOMALY":79.1109,"EPHEMERIS_TYPE":0,"CLASSIFICATION_TYPE":"U","NORAD_CAT_ID":18187,"ELEMENT_SET_NO":999,"REV_AT_EPOCH":2605,"BSTAR":2.3844135e-5,"MEAN_MOTION_DOT":-3.7e-7,"MEAN_MOTION_DDOT":0},{"OBJECT_NAME":"SL-14 R/B","OBJECT_ID":"1988-001B","EPOCH":"2026-04-21T20:22:32.291904","MEAN_MOTION":14.85567903,"ECCENTRICITY":0.0019654,"INCLINATION":82.513,"RA_OF_ASC_NODE":154.777,"ARG_OF_PERICENTER":95.4877,"MEAN_ANOMALY":264.8581,"EPHEMERIS_TYPE":0,"CLASSIFICATION_TYPE":"U","NORAD_CAT_ID":18749,"ELEMENT_SET_NO":999,"REV_AT_EPOCH":4843,"BSTAR":2.7641e-5,"MEAN_MOTION_DOT":2.64e-6,"MEAN_MOTION_DDOT":0},{"OBJECT_NAME":"COSMOS 1933","OBJECT_ID":"1988-020A","EPOCH":"2026-04-21T18:19:11.236800","MEAN_MOTION":15.18362739,"ECCENTRICITY":0.0005181,"INCLINATION":82.5153,"RA_OF_ASC_NODE":208.2881,"ARG_OF_PERICENTER":63.6771,"MEAN_ANOMALY":296.4995,"EPHEMERIS_TYPE":0,"CLASSIFICATION_TYPE":"U","NORAD_CAT_ID":18958,"ELEMENT_SET_NO":999,"REV_AT_EPOCH":5676,"BSTAR":0.00013167,"MEAN_MOTION_DOT":2.736e-5,"MEAN_MOTION_DDOT":0},{"OBJECT_NAME":"SL-3 R/B","OBJECT_ID":"1988-032B","EPOCH":"2026-04-21T20:21:08.146080","MEAN_MOTION":15.20351484,"ECCENTRICITY":0.0027684,"INCLINATION":97.524,"RA_OF_ASC_NODE":94.9776,"ARG_OF_PERICENTER":84.0974,"MEAN_ANOMALY":276.3415,"EPHEMERIS_TYPE":0,"CLASSIFICATION_TYPE":"U","NORAD_CAT_ID":19046,"ELEMENT_SET_NO":999,"REV_AT_EPOCH":5866,"BSTAR":0.00018477,"MEAN_MOTION_DOT":3.989e-5,"MEAN_MOTION_DDOT":0},{"OBJECT_NAME":"SL-16 R/B","OBJECT_ID":"1988-039B","EPOCH":"2026-04-21T19:42:58.338720","MEAN_MOTION":14.1962265,"ECCENTRICITY":0.0024077,"INCLINATION":71.0155,"RA_OF_ASC_NODE":337.3475,"ARG_OF_PERICENTER":273.3365,"MEAN_ANOMALY":86.5006,"EPHEMERIS_TYPE":0,"CLASSIFICATION_TYPE":"U","NORAD_CAT_ID":19120,"ELEMENT_SET_NO":999,"REV_AT_EPOCH":96450,"BSTAR":1.6023e-5,"MEAN_MOTION_DOT":-1.4e-7,"MEAN_MOTION_DDOT":0},{"OBJECT_NAME":"COSMOS 1953","OBJECT_ID":"1988-050A","EPOCH":"2026-04-21T18:10:25.981824","MEAN_MOTION":15.29159258,"ECCENTRICITY":0.0009899,"INCLINATION":82.5051,"RA_OF_ASC_NODE":114.9001,"ARG_OF_PERICENTER":342.4269,"MEAN_ANOMALY":17.6627,"EPHEMERIS_TYPE":0,"CLASSIFICATION_TYPE":"U","NORAD_CAT_ID":19210,"ELEMENT_SET_NO":999,"REV_AT_EPOCH":4436,"BSTAR":0.00024395,"MEAN_MOTION_DOT":6.944e-5,"MEAN_MOTION_DDOT":0}]
